[{"OBJECT_NAME":"VIZARD-METEO (RS38S)","OBJECT_ID":"2023-091Z","EPOCH":"2026-03-09T23:01:09.168960","MEAN_MOTION":15.32764799,"ECCENTRICITY":0.00087615,"INCLINATION":97.5192,"RA_OF_ASC_NODE":136.6522,"ARG_OF_PERICENTER":71.7666,"MEAN_ANOMALY":288.4529,"EPHEMERIS_TYPE":0,"CLASSIFICATION_TYPE":"U","NORAD_CAT_ID":57189,"ELEMENT_SET_NO":999,"REV_AT_EPOCH":14947,"BSTAR":0.00066106249,"MEAN_MOTION_DOT":0.00020895,"MEAN_MOTION_DDOT":0},{"OBJECT_NAME":"STARLINK-31516","OBJECT_ID":"2024-046W","EPOCH":"2026-03-09T13:29:10.523040","MEAN_MOTION":15.3018646,"ECCENTRICITY":0.0001351,"INCLINATION":53.1608,"RA_OF_ASC_NODE":155.6669,"ARG_OF_PERICENTER":127.9911,"MEAN_ANOMALY":232.1212,"EPHEMERIS_TYPE":0,"CLASSIFICATION_TYPE":"U","NORAD_CAT_ID":59221,"ELEMENT_SET_NO":999,"REV_AT_EPOCH":11302,"BSTAR":-4.2693e-5,"MEAN_MOTION_DOT":-1.623e-5,"MEAN_MOTION_DDOT":0}]
